rup_mag,dist_repi,site_vs30,result_type,pga
2.6,0.1,600,MEAN,0.00909500370046134
2.8,0.1,600,MEAN,0.0123901111439834
3,0.1,600,MEAN,0.0168512085807029
3.2,0.1,600,MEAN,0.0228809687529341
3.4,0.1,600,MEAN,0.0310163669152969
3.6,0.1,600,MEAN,0.04197892687953
3.8,0.1,600,MEAN,0.0567193319888589
4,0.1,600,MEAN,0.0765101689857579
4.2,0.1,600,MEAN,0.103039611058123
4.4,0.1,600,MEAN,0.138538206924313
2.6,0.158489319246111,600,MEAN,0.00907997684593756
2.8,0.158489319246111,600,MEAN,0.0123694492190134
3,0.158489319246111,600,MEAN,0.016823502817675
3.2,0.158489319246111,600,MEAN,0.0228434016166249
3.4,0.158489319246111,600,MEAN,0.0309670600488909
3.6,0.158489319246111,600,MEAN,0.0419108364449695
3.8,0.158489319246111,600,MEAN,0.056627762094105
4,0.158489319246111,600,MEAN,0.076388075792753
4.2,0.158489319246111,600,MEAN,0.10287525483677
4.4,0.158489319246111,600,MEAN,0.138317499998496
2.6,0.251188643150958,600,MEAN,0.00904194012042452
2.8,0.251188643150958,600,MEAN,0.0123180292011901
3,0.251188643150958,600,MEAN,0.0167537688209009
3.2,0.251188643150958,600,MEAN,0.0227494837758518
3.4,0.251188643150958,600,MEAN,0.0308402709638474
3.6,0.251188643150958,600,MEAN,0.0417394363855588
3.8,0.251188643150958,600,MEAN,0.0563976633842113
4,0.251188643150958,600,MEAN,0.0760804948642213
4.2,0.251188643150958,600,MEAN,0.102462016337368
4.4,0.251188643150958,600,MEAN,0.137768080629974
2.6,0.398107170553497,600,MEAN,0.00894755269044757
2.8,0.398107170553497,600,MEAN,0.0121903009377388
3,0.398107170553497,600,MEAN,0.0165809599938785
3.2,0.398107170553497,600,MEAN,0.0225160979415308
3.4,0.398107170553497,600,MEAN,0.0305256461972576
3.6,0.398107170553497,600,MEAN,0.0413168061020802
3.8,0.398107170553497,600,MEAN,0.0558294604475342
4,0.398107170553497,600,MEAN,0.0753174124079404
4.2,0.398107170553497,600,MEAN,0.101440659818962
4.4,0.398107170553497,600,MEAN,0.136401576046726
2.6,0.630957344480193,600,MEAN,0.00871792356975761
2.8,0.630957344480193,600,MEAN,0.0118791980901782
3,0.630957344480193,600,MEAN,0.0161599732726133
3.2,0.630957344480193,600,MEAN,0.021947660210252
3.4,0.630957344480193,600,MEAN,0.029757867848938
3.6,0.630957344480193,600,MEAN,0.0402837098535767
3.8,0.630957344480193,600,MEAN,0.054444172296132
4,0.630957344480193,600,MEAN,0.0734578391606342
4.2,0.630957344480193,600,MEAN,0.0989494890924569
4.4,0.630957344480193,600,MEAN,0.133069840645303
2.6,1,600,MEAN,0.00818259187735116
2.8,1,600,MEAN,0.0111534479756044
3,1,600,MEAN,0.0151780622473313
3.2,1,600,MEAN,0.0206210707093328
3.4,1,600,MEAN,0.0279687329822117
3.6,1,600,MEAN,0.0378747172377481
3.8,1,600,MEAN,0.0512063547354813
4,1,600,MEAN,0.0691117910788617
4.2,1,600,MEAN,0.0931289309105476
4.4,1,600,MEAN,0.125286399591237
2.6,1.58489319246111,600,MEAN,0.00705510819887079
2.8,1.58489319246111,600,MEAN,0.00962446552781942
3,1.58489319246111,600,MEAN,0.0131081130366934
3.2,1.58489319246111,600,MEAN,0.0178232582327038
3.4,1.58489319246111,600,MEAN,0.0241955837291548
3.6,1.58489319246111,600,MEAN,0.032789066159888
3.8,1.58489319246111,600,MEAN,0.0443667879811847
4,1.58489319246111,600,MEAN,0.0599313221432969
4.2,1.58489319246111,600,MEAN,0.0808233458232599
4.4,1.58489319246111,600,MEAN,0.108820254157703
2.6,2.51188643150958,600,MEAN,0.00513824506869304
2.8,2.51188643150958,600,MEAN,0.00702200215999827
3,2.51188643150958,600,MEAN,0.00958055893725785
3.2,2.51188643150958,600,MEAN,0.013049883975414
3.4,2.51188643150958,600,MEAN,0.017746480397872
3.6,2.51188643150958,600,MEAN,0.0240946220503237
3.8,2.51188643150958,600,MEAN,0.0326575811828058
4,2.51188643150958,600,MEAN,0.0441930399757546
4.2,2.51188643150958,600,MEAN,0.0597035713794222
4.4,2.51188643150958,600,MEAN,0.0805275046248249
2.6,3.98107170553497,600,MEAN,0.00288961716598462
2.8,3.98107170553497,600,MEAN,0.00396215890761274
3,3.98107170553497,600,MEAN,0.00542375530464306
3.2,3.98107170553497,600,MEAN,0.00741270037761429
3.4,3.98107170553497,600,MEAN,0.0101142470674508
3.6,3.98107170553497,600,MEAN,0.013777747241405
3.8,3.98107170553497,600,MEAN,0.0187373136180275
4,3.98107170553497,600,MEAN,0.0254399951193976
4.2,3.98107170553497,600,MEAN,0.0344842831858414
4.4,3.98107170553497,600,MEAN,0.0466677750801242
2.6,6.30957344480193,600,MEAN,0.00126692819256807
2.8,6.30957344480193,600,MEAN,0.00174623789295334
3,6.30957344480193,600,MEAN,0.00240288795617819
3.2,6.30957344480193,600,MEAN,0.00330121210317231
3.4,6.30957344480193,600,MEAN,0.00452777910366837
3.6,6.30957344480193,600,MEAN,0.00619975146403035
3.8,6.30957344480193,600,MEAN,0.00847561554056317
4,6.30957344480193,600,MEAN,0.0115676256534135
4.2,6.30957344480193,600,MEAN,0.0157617616277356
4.4,6.30957344480193,600,MEAN,0.0214414430484852
2.6,10,600,MEAN,0.000517698617801127
2.8,10,600,MEAN,0.000718377564072947
3,10,600,MEAN,0.000995176920291382
3.2,10,600,MEAN,0.00137638943598914
3.4,10,600,MEAN,0.00190047446696293
3.6,10,600,MEAN,0.00261983816836404
3.8,10,600,MEAN,0.003605505907277
4,10,600,MEAN,0.00495416610077795
4.2,10,600,MEAN,0.0067956601637354
4.4,10,600,MEAN,0.00930678843140457
2.6,15.8489319246111,600,MEAN,0.000261349871411155
2.8,15.8489319246111,600,MEAN,0.000365434318447835
3,15.8489319246111,600,MEAN,0.000510091272698586
3.2,15.8489319246111,600,MEAN,0.000710864136811165
3.4,15.8489319246111,600,MEAN,0.000989025301720779
3.6,15.8489319246111,600,MEAN,0.00137380669536791
3.8,15.8489319246111,600,MEAN,0.00190512340008111
4,15.8489319246111,600,MEAN,0.00263768255811095
4.2,15.8489319246111,600,MEAN,0.00364565578420755
4.4,15.8489319246111,600,MEAN,0.00503094393560984
2.6,25.1188643150958,600,MEAN,0.000225975716684095
2.8,25.1188643150958,600,MEAN,0.000318498877521634
3,25.1188643150958,600,MEAN,0.000448175936168938
3.2,25.1188643150958,600,MEAN,0.00062962520454251
3.4,25.1188643150958,600,MEAN,0.000883062497868493
3.6,25.1188643150958,600,MEAN,0.00123647533269749
3.8,25.1188643150958,600,MEAN,0.0017285109005075
4,25.1188643150958,600,MEAN,0.00241227974025552
4.2,25.1188643150958,600,MEAN,0.00336131952126713
4.4,25.1188643150958,600,MEAN,0.00467569970288578
