rup_mag,dist_epi,site_vs30,result_type,pga
2.6,0.1,600,MEAN,3.8736
2.8,0.1,600,MEAN,5.2770
3,0.1,600,MEAN,7.1770
3.2,0.1,600,MEAN,9.7451
3.4,0.1,600,MEAN,13.210
3.6,0.1,600,MEAN,17.879
3.8,0.1,600,MEAN,24.157
4,0.1,600,MEAN,32.586
4.2,0.1,600,MEAN,43.885
4.4,0.1,600,MEAN,59.004
2.6,0.158489319246111,600,MEAN,3.8672
2.8,0.158489319246111,600,MEAN,5.2682
3,0.158489319246111,600,MEAN,7.1652
3.2,0.158489319246111,600,MEAN,9.7291
3.4,0.158489319246111,600,MEAN,13.189
3.6,0.158489319246111,600,MEAN,17.850
3.8,0.158489319246111,600,MEAN,24.118
4,0.158489319246111,600,MEAN,32.534
4.2,0.158489319246111,600,MEAN,43.815
4.4,0.158489319246111,600,MEAN,58.910
2.6,0.251188643150958,600,MEAN,3.8510
2.8,0.251188643150958,600,MEAN,5.2463
3,0.251188643150958,600,MEAN,7.1355
3.2,0.251188643150958,600,MEAN,9.6891
3.4,0.251188643150958,600,MEAN,13.135
3.6,0.251188643150958,600,MEAN,17.777
3.8,0.251188643150958,600,MEAN,24.020
4,0.251188643150958,600,MEAN,32.403
4.2,0.251188643150958,600,MEAN,43.639
4.4,0.251188643150958,600,MEAN,58.676
2.6,0.398107170553497,600,MEAN,3.8108
2.8,0.398107170553497,600,MEAN,5.1919
3,0.398107170553497,600,MEAN,7.0619
3.2,0.398107170553497,600,MEAN,9.5897
3.4,0.398107170553497,600,MEAN,13.001
3.6,0.398107170553497,600,MEAN,17.597
3.8,0.398107170553497,600,MEAN,23.778
4,0.398107170553497,600,MEAN,32.078
4.2,0.398107170553497,600,MEAN,43.204
4.4,0.398107170553497,600,MEAN,58.094
2.6,0.630957344480193,600,MEAN,3.7130
2.8,0.630957344480193,600,MEAN,5.0594
3,0.630957344480193,600,MEAN,6.8826
3.2,0.630957344480193,600,MEAN,9.3476
3.4,0.630957344480193,600,MEAN,12.674
3.6,0.630957344480193,600,MEAN,17.157
3.8,0.630957344480193,600,MEAN,23.188
4,0.630957344480193,600,MEAN,31.286
4.2,0.630957344480193,600,MEAN,42.143
4.4,0.630957344480193,600,MEAN,56.675
2.6,1,600,MEAN,3.4850
2.8,1,600,MEAN,4.7503
3,1,600,MEAN,6.4644
3.2,1,600,MEAN,8.7826
3.4,1,600,MEAN,11.912
3.6,1,600,MEAN,16.131
3.8,1,600,MEAN,21.809
4,1,600,MEAN,29.435
4.2,1,600,MEAN,39.664
4.4,1,600,MEAN,53.360
2.6,1.58489319246111,600,MEAN,3.0048
2.8,1.58489319246111,600,MEAN,4.0991
3,1.58489319246111,600,MEAN,5.5828
3.2,1.58489319246111,600,MEAN,7.5910
3.4,1.58489319246111,600,MEAN,10.305
3.6,1.58489319246111,600,MEAN,13.965
3.8,1.58489319246111,600,MEAN,18.896
4,1.58489319246111,600,MEAN,25.525
4.2,1.58489319246111,600,MEAN,34.423
4.4,1.58489319246111,600,MEAN,46.347
2.6,2.51188643150958,600,MEAN,2.1884
2.8,2.51188643150958,600,MEAN,2.9907
3,2.51188643150958,600,MEAN,4.0804
3.2,2.51188643150958,600,MEAN,5.5580
3.4,2.51188643150958,600,MEAN,7.5583
3.6,2.51188643150958,600,MEAN,10.262
3.8,2.51188643150958,600,MEAN,13.909
4,2.51188643150958,600,MEAN,18.822
4.2,2.51188643150958,600,MEAN,25.428
4.4,2.51188643150958,600,MEAN,34.297
2.6,3.98107170553497,600,MEAN,1.2307
2.8,3.98107170553497,600,MEAN,1.6875
3,3.98107170553497,600,MEAN,2.3100
3.2,3.98107170553497,600,MEAN,3.1571
3.4,3.98107170553497,600,MEAN,4.3077
3.6,3.98107170553497,600,MEAN,5.8680
3.8,3.98107170553497,600,MEAN,7.9803
4,3.98107170553497,600,MEAN,10.835
4.2,3.98107170553497,600,MEAN,14.687
4.4,3.98107170553497,600,MEAN,19.876
2.6,6.30957344480193,600,MEAN,0.53959
2.8,6.30957344480193,600,MEAN,0.74373
3,6.30957344480193,600,MEAN,1.02340
3.2,6.30957344480193,600,MEAN,1.40600
3.4,6.30957344480193,600,MEAN,1.92840
3.6,6.30957344480193,600,MEAN,2.64050
3.8,6.30957344480193,600,MEAN,3.60980
4,6.30957344480193,600,MEAN,4.92670
4.2,6.30957344480193,600,MEAN,6.71300
4.4,6.30957344480193,600,MEAN,9.13200
2.6,10,600,MEAN,0.22049
2.8,10,600,MEAN,0.30596
3,10,600,MEAN,0.42385
3.2,10,600,MEAN,0.58621
3.4,10,600,MEAN,0.80942
3.6,10,600,MEAN,1.11580
3.8,10,600,MEAN,1.53560
4,10,600,MEAN,2.11000
4.2,10,600,MEAN,2.89430
4.4,10,600,MEAN,3.96380
2.6,15.8489319246111,600,MEAN,0.11131
2.8,15.8489319246111,600,MEAN,0.15564
3,15.8489319246111,600,MEAN,0.21725
3.2,15.8489319246111,600,MEAN,0.30276
3.4,15.8489319246111,600,MEAN,0.42123
3.6,15.8489319246111,600,MEAN,0.58511
3.8,15.8489319246111,600,MEAN,0.81140
4,15.8489319246111,600,MEAN,1.12340
4.2,15.8489319246111,600,MEAN,1.55270
4.4,15.8489319246111,600,MEAN,2.14270
2.6,25.1188643150958,600,MEAN,0.096244
2.8,25.1188643150958,600,MEAN,0.13565
3,25.1188643150958,600,MEAN,0.19088
3.2,25.1188643150958,600,MEAN,0.26816
3.4,25.1188643150958,600,MEAN,0.3761
3.6,25.1188643150958,600,MEAN,0.52662
3.8,25.1188643150958,600,MEAN,0.73618
4,25.1188643150958,600,MEAN,1.0274
4.2,25.1188643150958,600,MEAN,1.4316
4.4,25.1188643150958,600,MEAN,1.9914
